STARLINK-11332 [DTC]    
1 61539C 24184H   26193.42548611  .00052500  00000+0  43233-3 0  1930
2 61539  53.1568 341.0702 0000972  87.5680 239.7524 15.69690767    12
STARLINK-11350 [DTC]    
1 61540C 24184J   26193.37826389  .00052484  00000+0  43223-3 0  1937
2 61540  53.1568 341.2243 0000965 104.1336 343.9328 15.69688784    18
STARLINK-11357 [DTC]    
1 61541C 24184K   26193.40465278  .00054378  00000+0  44788-3 0  1939
2 61541  53.1572 341.7719 0001050 100.8236 163.6186 15.69685093    14
STARLINK-11322 [DTC]    
1 61542C 24184L   26193.37826389  .00068885  00000+0  56679-3 0  1930
2 61542  53.1573 341.8461 0000915  69.4369  73.4473 15.69702589    14
STARLINK-11364 [DTC]    
1 61543C 24184M   26193.39354167  .00051599  00000+0  42505-3 0  1930
2 61543  53.1571 341.7134 0000931  89.5556 167.5487 15.69683071    12
STARLINK-11349 [DTC]    
1 61544C 24184N   26193.37826389  .00046148  00000+0  38017-3 0  1936
2 61544  53.1568 341.7321 0000953  92.2244 106.2305 15.69684832    11
STARLINK-32406          
1 61545C 24184P   26193.38381944  .00036577  00000+0  10808-2 0  1933
2 61545  53.1561 153.6815 0001498  75.0895 273.2011 15.34368410    11
STARLINK-32445          
1 61546C 24184Q   26193.37131944  .00048340  00000+0  13954-2 0  1932
2 61546  53.1575 153.4086 0002153  66.7253  22.6510 15.35095030    15
STARLINK-32411          
1 61547C 24184R   26193.38243056  .00037992  00000+0  11233-2 0  1931
2 61547  53.1564 153.8245 0001498  79.8748 190.9815 15.34348696    15
STARLINK-32424          
1 61548C 24184S   26193.42062500  .00014823  00000+0  43801-3 0  1935
2 61548  53.1571 153.3060 0001247  81.4654 214.8866 15.34378230    10
STARLINK-32389          
1 61549C 24184T   26193.40673611  .00020282  00000+0  68358-3 0  1935
2 61549  53.1578 154.6634 0001391  83.1896 199.6281 15.30182003    14
STARLINK-32476          
1 61550C 24184U   26193.42618056  .00011627  00000+0  34361-3 0  1931
2 61550  53.1566 153.3475 0001326  83.3538 208.8336 15.34375695    14
STARLINK-32366          
1 61551C 24184V   26193.37131944  .00034868  00000+0  10303-2 0  1933
2 61551  53.1575 153.4000 0001306  82.4956  11.1331 15.34369811    15
STARLINK-11356 [DTC]    
1 61574C 24187A   26193.41298611  .00032525  00000+0  26791-3 0  1938
2 61574  53.1571  41.4369 0000929  87.4466 113.5700 15.69694368    14
STARLINK-11376 [DTC]    
1 61575C 24187B   26193.42756944  .00046670  00000+0  38445-3 0  1933
2 61575  53.1572  41.3087 0000941  90.4489 220.7684 15.69685630    19
STARLINK-11372 [DTC]    
1 61576C 24187C   26193.38243056  .00007346  00000+0  60513-4 0  1933
2 61576  53.1575  41.4744 0001005  94.1711 349.5521 15.69705765    17
STARLINK-11375 [DTC]    
1 61577C 24187D   26193.38520833 -.00007033  00000+0 -57932-4 0  1931
2 61577  53.1572  41.4033 0000925  89.6690  37.4983 15.69712436    19
STARLINK-11285 [DTC]    
1 61578C 24187E   26193.37618056  .00048345  00000+0  39706-3 0  1933
2 61578  53.1569  41.3906 0001203 108.7849 355.0638 15.69756213    10
STARLINK-11275 [DTC]    
1 61579C 24187F   26193.40951389  .00006666  00000+0  54906-4 0  1937
2 61579  53.1565  41.1687 0000985  94.2191 225.8506 15.69707751    17
STARLINK-11342 [DTC]    
1 61580C 24187G   26193.38729167 -.00008643  00000+0 -71205-4 0  1933
2 61580  53.1564  41.2211 0000983  87.3034 134.8585 15.69710412    13
STARLINK-11374 [DTC]    
1 61581C 24187H   26193.39562500  .00003279  00000+0  27010-4 0  1934
2 61581  53.1566  41.8590 0000929  95.2410 201.1950 15.69704973    17
STARLINK-11373 [DTC]    
1 61582C 24187J   26193.39076389  .00004666  00000+0  38432-4 0  1931
2 61582  53.1571  41.8262 0000945  91.8063 204.8772 15.69708794    11
STARLINK-11368 [DTC]    
1 61583C 24187K   26193.39909722  .00018311  00000+0  15083-3 0  1936
2 61583  53.1571  41.7280 0000979 100.4877 271.0576 15.69699721    15
STARLINK-11370 [DTC]    
1 61584C 24187L   26193.39701389  .00009072  00000+0  74735-4 0  1930
2 61584  53.1572  41.6807 0000991  97.7460 289.7591 15.69704057    13
STARLINK-11361 [DTC]    
1 61585C 24187M   26193.40465278  .00028101  00000+0  23148-3 0  1932
2 61585  53.1572  41.5858 0001009  94.8154   3.6118 15.69695196    19
STARLINK-11360 [DTC]    
1 61586C 24187N   26193.36159722  .00053776  00000+0  44289-3 0  1937
2 61586  53.1570  41.7410 0000656  64.1226 178.4973 15.69687354    18
STARLINK-32353          
1 61587C 24187P   26193.36645833 -.00023876  00000+0 -70556-3 0  1937
2 61587  53.1578 203.5801 0001232  78.8566 336.9573 15.34396143    11
STARLINK-32325          
1 61588C 24187Q   26193.38520833 -.00014750  00000+0 -43593-3 0  1934
2 61588  53.1569 203.7083 0000988  63.4205 351.3721 15.34388221    17
STARLINK-32416          
1 61589C 24187R   26193.37826389  .00012194  00000+0  36036-3 0  1931
2 61589  53.1564 189.1756 0001147  78.7510 115.6854 15.34378005    10
STARLINK-32413          
1 61590C 24187S   26193.36645833 -.00011528  00000+0 -34067-3 0  1939
2 61590  53.1557 203.9238 0000998  86.5232 154.8717 15.34389573    10
STARLINK-32409          
1 61591C 24187T   26193.38104167  .00010514  00000+0  31075-3 0  1930
2 61591  53.1571 189.4376 0001066  75.4917 354.7453 15.34375308    11
STARLINK-32422          
1 61592C 24187U   26193.41854167  .00041546  00000+0  12288-2 0  1930
2 61592  53.1567 189.1206 0001305  84.0427 263.3336 15.34335493    10
STARLINK-32397          
1 61593C 24187V   26193.36715278 -.00010302  00000+0 -30444-3 0  1937
2 61593  53.1559 201.6485 0001320  65.3629 252.8290 15.34389482    13
STARLINK-32302          
1 61621C 24191A   26193.39562500  .00049396  00000+0  17892-2 0  1939
2 61621  42.9994 169.9735 0001411 276.3138   9.0100 15.27552847    19
STARLINK-32364          
1 61622C 24191B   26193.39493056  .00059198  00000+0  21441-2 0  1935
2 61622  42.9995 170.1118 0001412 276.3075 308.5807 15.27549418    12
STARLINK-32331          
1 61623C 24191C   26193.39979167  .00062732  00000+0  22716-2 0  1932
2 61623  42.9994 173.7151 0001605 281.9812 261.4553 15.27554884    11
STARLINK-32398          
1 61624C 24191D   26193.36923611 -.00012430  00000+0 -45016-3 0  1934
2 61624  42.9997 170.4085 0001231 276.2064 103.5169 15.27588872    19
STARLINK-32365          
1 61625C 24191E   26193.37618056  .00084708  00000+0  30696-2 0  1932
2 61625  42.9993 170.1166 0001447 263.0618 260.9571 15.27520354    17
STARLINK-32333          
1 61626C 24191F   26193.41020833  .00061856  00000+0  22404-2 0  1935
2 61626  42.9993 173.8060 0001293 282.9473 254.3020 15.27548716    17
STARLINK-32399          
1 61627C 24191G   26193.39701389  .00047483  00000+0  17199-2 0  1930
2 61627  42.9994 162.7947 0001423 277.6308 116.1354 15.27553661    13
STARLINK-32421          
1 61628C 24191H   26193.42826389  .00049783  00000+0  18055-2 0  1930
2 61628  42.9991 170.1599 0001398 281.4839  27.8601 15.27511353    15
STARLINK-32403          
1 61629C 24191J   26193.39076389  .00068399  00000+0  24782-2 0  1932
2 61629  42.9995 170.2356 0001326 287.2503 232.1709 15.27533510    14
STARLINK-32390          
1 61630C 24191K   26193.37618056  .00051506  00000+0  18657-2 0  1931
2 61630  43.0006 170.5578 0001198 272.0817  68.0824 15.27550259    10
STARLINK-32348          
1 61631C 24191L   26193.40881944 -.00156320  00000+0 -56559-2 0  1939
2 61631  42.9995 173.7117 0001197 275.2520 296.8367 15.27690072    16
STARLINK-32455          
1 61632C 24191M   26193.39076389  .00053649  00000+0  19433-2 0  1935
2 61632  42.9998 174.0182 0001131 287.5842 100.1679 15.27549708    19
STARLINK-32396          
1 61633C 24191N   26193.37756944  .00042784  00000+0  15499-2 0  1932
2 61633  42.9994 173.9391 0001020 278.8243  99.9589 15.27552179    12
STARLINK-32355          
1 61634C 24191P   26193.36576389  .00054071  00000+0  19585-2 0  1937
2 61634  43.0004 174.1947 0001178 278.1374 317.8154 15.27550930    12
STARLINK-32370          
1 61635C 24191Q   26193.40256944  .00052938  00000+0  19176-2 0  1931
2 61635  42.9999 169.8809 0001533 277.4078  67.3590 15.27548739    15
STARLINK-32405          
1 61636C 24191R   26193.39701389  .00064978  00000+0  23546-2 0  1931
2 61636  43.0004 174.0682 0001238 274.0027 112.7066 15.27530748    15
STARLINK-32419          
1 61637C 24191S   26193.38590278  .00058707  00000+0  21265-2 0  1933
2 61637  43.0000 170.4497 0001359 277.6511 137.2535 15.27547708    14
STARLINK-32320          
1 61638C 24191T   26193.37548611  .00053402  00000+0  19344-2 0  1939
2 61638  43.0011 174.2413 0001162 276.4896 330.5538 15.27549714    12
STARLINK-32341          
1 61639C 24191U   26193.36368056  .00052846  00000+0  19140-2 0  1937
2 61639  42.9992 170.4712 0001332 275.6148  59.2805 15.27553796    16
STARLINK-32339          
1 61640C 24191V   26193.38659722  .00043877  00000+0  15893-2 0  1939
2 61640  43.0007 169.9209 0001518 277.4546   0.6152 15.27555506    15
STARLINK-32327          
1 61641C 24191W   26193.40673611  .00032718  00000+0  11859-2 0  1936
2 61641  42.9991 169.9908 0001467 277.4111  33.6383 15.27537812    15
STARLINK-32264          
1 61642C 24191X   26193.42131944  .00082951  00000+0  77075-3 0  1934
2 61642  42.9868 151.5186 0022760 157.6785 248.5040 15.66095761    11
STARLINK-32337          
1 61643C 24191Y   26193.39076389  .00056087  00000+0  20316-2 0  1938
2 61643  42.9993 170.1820 0001182 279.0090 261.7181 15.27548825    10
STARLINK-32238          
1 61661C 24193A   26193.40187500 -.00008258  00000+0 -27826-3 0  1933
2 61661  53.1584 231.9248 0001391  76.6459  79.2370 15.30202517    13
STARLINK-32310          
1 61662C 24193B   26193.41090278 -.00011602  00000+0 -37314-3 0  1930
2 61662  53.1577 231.0040 0001324  70.0132 222.5029 15.31703418    10
STARLINK-32308          
1 61663C 24193C   26193.41368056 -.00021470  00000+0 -63445-3 0  1931
2 61663  53.1562 229.3162 0001160  85.4812 352.2188 15.34396020    10
